start=new Date('2023-01-19T00:00:00.000Z').valueOf();
sats=[{"LAUNCH_DATE":"2022-02-25","EPOCH":"2023-01-18T21:35:12.239808","SEMIMAJOR_AXIS":"6917.806","NORAD_CAT_ID":"51779","OBJECT_NAME":"STARLINK-3611","ECCENTRICITY":"0.00017710","MEAN_ELEMENT_THEORY":"SGP4","TLE_LINE2":"2 51779  53.2162  82.7860 0001771  83.2549 276.8645 15.08864218 49596","GP_ID":"223455378","RCS_SIZE":"LARGE","CLASSIFICATION_TYPE":"U","REV_AT_EPOCH":"4959","COUNTRY_CODE":"US","INCLINATION":"53.2162","TIME_SYSTEM":"UTC","ELEMENT_SET_NO":"999","APOAPSIS":"540.897","CENTER_NAME":"EARTH","OBJECT_TYPE":"PAYLOAD","PERIAPSIS":"538.446","BSTAR":"0.00096513000000","TLE_LINE1":"1 51779U 22017M   23018.89944722  .00015116  00000-0  96513-3 0  9991","MEAN_MOTION":"15.08864218","DECAY_DATE":null,"REF_FRAME":"TEME","OBJECT_ID":"2022-017M","PERIOD":"95.436","MEAN_ANOMALY":"276.8645","SITE":"AFWTR","MEAN_MOTION_DDOT":"0.0000000000000","ARG_OF_PERICENTER":"83.2549","FILE":"3754254","EPHEMERIS_TYPE":"0","RA_OF_ASC_NODE":"82.7860","MEAN_MOTION_DOT":"0.00015116"},{"APOAPSIS":"540.724","BSTAR":"0.00147750000000","CENTER_NAME":"EARTH","OBJECT_TYPE":"PAYLOAD","PERIAPSIS":"538.507","INCLINATION":"53.2153","ELEMENT_SET_NO":"999","TIME_SYSTEM":"UTC","NORAD_CAT_ID":"51780","OBJECT_NAME":"STARLINK-3617","MEAN_ELEMENT_THEORY":"SGP4","TLE_LINE2":"2 51780  53.2153  82.8288 0001602  84.7132 275.4043 15.08882475 49446","ECCENTRICITY":"0.00016020","REV_AT_EPOCH":"4944","GP_ID":"223456630","CLASSIFICATION_TYPE":"U","RCS_SIZE":"LARGE","COUNTRY_CODE":"US","LAUNCH_DATE":"2022-02-25","SEMIMAJOR_AXIS":"6917.751","EPOCH":"2023-01-18T21:20:41.076384","EPHEMERIS_TYPE":"0","RA_OF_ASC_NODE":"82.8288","MEAN_MOTION_DOT":"0.00023332","MEAN_MOTION_DDOT":"0.0000000000000","FILE":"3754254","ARG_OF_PERICENTER":"84.7132","PERIOD":"95.435","MEAN_ANOMALY":"275.4043","SITE":"AFWTR","TLE_LINE1":"1 51780U 22017N   23018.88936431  .00023332  00000-0  14775-2 0  9998","REF_FRAME":"TEME","DECAY_DATE":null,"MEAN_MOTION":"15.08882475","OBJECT_ID":"2022-017N"},{"RCS_SIZE":"LARGE","GP_ID":"223456380","CLASSIFICATION_TYPE":"U","REV_AT_EPOCH":"4944","COUNTRY_CODE":"US","NORAD_CAT_ID":"51781","OBJECT_NAME":"STARLINK-3580","ECCENTRICITY":"0.00018820","TLE_LINE2":"2 51781  53.2155  82.7965 0001882  75.4874 284.6327 15.08880797 49442","MEAN_ELEMENT_THEORY":"SGP4","SEMIMAJOR_AXIS":"6917.756","EPOCH":"2023-01-18T21:29:54.898656","LAUNCH_DATE":"2022-02-25","OBJECT_TYPE":"PAYLOAD","CENTER_NAME":"EARTH","PERIAPSIS":"538.319","BSTAR":"0.00190040000000","APOAPSIS":"540.923","INCLINATION":"53.2155","TIME_SYSTEM":"UTC","ELEMENT_SET_NO":"999","MEAN_ANOMALY":"284.6327","SITE":"AFWTR","PERIOD":"95.435","OBJECT_ID":"2022-017P","TLE_LINE1":"1 51781U 22017P   23018.89577429  .00030121  00000-0  19004-2 0  9992","MEAN_MOTION":"15.08880797","REF_FRAME":"TEME","DECAY_DATE":null,"MEAN_MOTION_DOT":"0.00030121","EPHEMERIS_TYPE":"0","RA_OF_ASC_NODE":"82.7965","ARG_OF_PERICENTER":"75.4874","FILE":"3754254","MEAN_MOTION_DDOT":"0.0000000000000"},{"FILE":"3754231","ARG_OF_PERICENTER":"64.6651","MEAN_MOTION_DDOT":"0.0000000000000","MEAN_MOTION_DOT":"0.00031119","EPHEMERIS_TYPE":"0","RA_OF_ASC_NODE":"94.4860","OBJECT_ID":"2022-017Q","REF_FRAME":"TEME","DECAY_DATE":null,"MEAN_MOTION":"15.08875478","TLE_LINE1":"1 51782U 22017Q   23018.51581768  .00031119  00000-0  19628-2 0  9993","SITE":"AFWTR","MEAN_ANOMALY":"295.4526","PERIOD":"95.435","ELEMENT_SET_NO":"999","TIME_SYSTEM":"UTC","INCLINATION":"53.2175","BSTAR":"0.00196280000000","OBJECT_TYPE":"PAYLOAD","PERIAPSIS":"538.399","CENTER_NAME":"EARTH","APOAPSIS":"540.875","SEMIMAJOR_AXIS":"6917.772","EPOCH":"2023-01-18T12:22:46.647552","LAUNCH_DATE":"2022-02-25","COUNTRY_CODE":"US","REV_AT_EPOCH":"5088","GP_ID":"223431798","RCS_SIZE":"LARGE","CLASSIFICATION_TYPE":"U","TLE_LINE2":"2 51782  53.2175  94.4860 0001790  64.6651 295.4526 15.08875478 50881","MEAN_ELEMENT_THEORY":"SGP4","ECCENTRICITY":"0.00017900","OBJECT_NAME":"STARLINK-3616","NORAD_CAT_ID":"51782"},{"FILE":"3754254","ARG_OF_PERICENTER":"88.5241","MEAN_MOTION_DDOT":"0.0000000000000","MEAN_MOTION_DOT":"0.00020658","EPHEMERIS_TYPE":"0","RA_OF_ASC_NODE":"82.8126","OBJECT_ID":"2022-017R","TLE_LINE1":"1 51783U 22017R   23018.89209100  .00020658  00000-0  13111-2 0  9999","REF_FRAME":"TEME","DECAY_DATE":null,"MEAN_MOTION":"15.08872499","MEAN_ANOMALY":"271.5864","SITE":"AFWTR","PERIOD":"95.435","INCLINATION":"53.2158","ELEMENT_SET_NO":"999","TIME_SYSTEM":"UTC","BSTAR":"0.00131110000000","CENTER_NAME":"EARTH","OBJECT_TYPE":"PAYLOAD","PERIAPSIS":"538.963","APOAPSIS":"540.330","SEMIMAJOR_AXIS":"6917.781","EPOCH":"2023-01-18T21:24:36.662400","LAUNCH_DATE":"2022-02-25","REV_AT_EPOCH":"4944","RCS_SIZE":"LARGE","GP_ID":"223455879","CLASSIFICATION_TYPE":"U","COUNTRY_CODE":"US","NORAD_CAT_ID":"51783","OBJECT_NAME":"STARLINK-3628","MEAN_ELEMENT_THEORY":"SGP4","TLE_LINE2":"2 51783  53.2158  82.8126 0000988  88.5241 271.5864 15.08872499 49447","ECCENTRICITY":"0.00009880"},{"TIME_SYSTEM":"UTC","ELEMENT_SET_NO":"999","INCLINATION":"53.2177","CENTER_NAME":"EARTH","OBJECT_TYPE":"PAYLOAD","PERIAPSIS":"538.920","BSTAR":"0.00021309000000","APOAPSIS":"540.477","SEMIMAJOR_AXIS":"6917.833","EPOCH":"2023-01-18T21:49:46.333920","LAUNCH_DATE":"2022-02-25","COUNTRY_CODE":"US","GP_ID":"223456130","CLASSIFICATION_TYPE":"U","RCS_SIZE":"LARGE","REV_AT_EPOCH":"4930","ECCENTRICITY":"0.00011250","MEAN_ELEMENT_THEORY":"SGP4","TLE_LINE2":"2 51784  53.2177  92.7312 0001125  84.1025 276.0096 15.08855394 49309","NORAD_CAT_ID":"51784","OBJECT_NAME":"STARLINK-3632","ARG_OF_PERICENTER":"84.1025","FILE":"3754254","MEAN_MOTION_DDOT":"0.0000000000000","MEAN_MOTION_DOT":"0.00003107","RA_OF_ASC_NODE":"92.7312","EPHEMERIS_TYPE":"0","OBJECT_ID":"2022-017S","MEAN_MOTION":"15.08855394","REF_FRAME":"TEME","DECAY_DATE":null,"TLE_LINE1":"1 51784U 22017S   23018.90956405  .00003107  00000-0  21309-3 0  9998","SITE":"AFWTR","MEAN_ANOMALY":"276.0096","PERIOD":"95.437"},{"MEAN_MOTION_DDOT":"0.0000000000000","FILE":"3754254","ARG_OF_PERICENTER":"68.4439","EPHEMERIS_TYPE":"0","RA_OF_ASC_NODE":"82.8348","MEAN_MOTION_DOT":"-0.00003399","TLE_LINE1":"1 51785U 22017T   23018.88839595 -.00003399  00000-0 -19539-3 0  9993","DECAY_DATE":null,"REF_FRAME":"TEME","MEAN_MOTION":"15.08872646","OBJECT_ID":"2022-017T","PERIOD":"95.435","MEAN_ANOMALY":"291.6754","SITE":"AFWTR","INCLINATION":"53.2170","ELEMENT_SET_NO":"999","TIME_SYSTEM":"UTC","APOAPSIS":"540.951","BSTAR":"-0.00019539000000","OBJECT_TYPE":"PAYLOAD","CENTER_NAME":"EARTH","PERIAPSIS":"538.340","LAUNCH_DATE":"2022-02-25","SEMIMAJOR_AXIS":"6917.781","EPOCH":"2023-01-18T21:19:17.410080","OBJECT_NAME":"STARLINK-3646","NORAD_CAT_ID":"51785","MEAN_ELEMENT_THEORY":"SGP4","TLE_LINE2":"2 51785  53.2170  82.8348 0001887  68.4439 291.6754 15.08872646 49449","ECCENTRICITY":"0.00018870","REV_AT_EPOCH":"4944","GP_ID":"223456880","CLASSIFICATION_TYPE":"U","RCS_SIZE":"LARGE","COUNTRY_CODE":"US"},{"SITE":"AFWTR","MEAN_ANOMALY":"266.6000","PERIOD":"95.435","OBJECT_ID":"2022-017U","REF_FRAME":"TEME","DECAY_DATE":null,"MEAN_MOTION":"15.08883706","TLE_LINE1":"1 51786U 22017U   23018.90220645  .00020964  00000-0  13298-2 0  9997","MEAN_MOTION_DOT":"0.00020964","RA_OF_ASC_NODE":"92.7591","EPHEMERIS_TYPE":"0","FILE":"3754254","ARG_OF_PERICENTER":"93.5127","MEAN_MOTION_DDOT":"0.0000000000000","COUNTRY_CODE":"US","REV_AT_EPOCH":"4930","RCS_SIZE":"LARGE","GP_ID":"223455129","CLASSIFICATION_TYPE":"U","MEAN_ELEMENT_THEORY":"SGP4","TLE_LINE2":"2 51786  53.2165  92.7591 0001179  93.5127 266.6000 15.08883706 49301","ECCENTRICITY":"0.00011790","OBJECT_NAME":"STARLINK-3638","NORAD_CAT_ID":"51786","EPOCH":"2023-01-18T21:39:10.637280","SEMIMAJOR_AXIS":"6917.747","LAUNCH_DATE":"2022-02-25","BSTAR":"0.00132980000000","OBJECT_TYPE":"PAYLOAD","PERIAPSIS":"538.796","CENTER_NAME":"EARTH","APOAPSIS":"540.427","ELEMENT_SET_NO":"999","TIME_SYSTEM":"UTC","INCLINATION":"53.2165"},{"ARG_OF_PERICENTER":"84.3457","FILE":"3754248","MEAN_MOTION_DDOT":"0.0000000000000","MEAN_MOTION_DOT":"0.00016424","RA_OF_ASC_NODE":"92.7015","EPHEMERIS_TYPE":"0","OBJECT_ID":"2022-017V","TLE_LINE1":"1 51787U 22017V   23018.91693372  .00016424  00000-0  10467-2 0  9991","MEAN_MOTION":"15.08872281","REF_FRAME":"TEME","DECAY_DATE":null,"MEAN_ANOMALY":"275.7744","SITE":"AFWTR","PERIOD":"95.436","INCLINATION":"53.2166","TIME_SYSTEM":"UTC","ELEMENT_SET_NO":"999","OBJECT_TYPE":"PAYLOAD","CENTER_NAME":"EARTH","PERIAPSIS":"538.381","BSTAR":"0.00104670000000","APOAPSIS":"540.913","SEMIMAJOR_AXIS":"6917.782","EPOCH":"2023-01-18T22:00:23.073408","LAUNCH_DATE":"2022-02-25","GP_ID":"223432430","RCS_SIZE":"LARGE","CLASSIFICATION_TYPE":"U","REV_AT_EPOCH":"5094","COUNTRY_CODE":"US","OBJECT_NAME":"STARLINK-3619","NORAD_CAT_ID":"51787","ECCENTRICITY":"0.00018300","MEAN_ELEMENT_THEORY":"SGP4","TLE_LINE2":"2 51787  53.2166  92.7015 0001830  84.3457 275.7744 15.08872281 50946"},{"FILE":"3754254","ARG_OF_PERICENTER":"88.7778","MEAN_MOTION_DDOT":"0.0000000000000","MEAN_MOTION_DOT":"0.00000811","EPHEMERIS_TYPE":"0","RA_OF_ASC_NODE":"92.8202","OBJECT_ID":"2022-017W","TLE_LINE1":"1 51788U 22017W   23018.89115556  .00000811  00000-0  69023-4 0  9999","REF_FRAME":"TEME","DECAY_DATE":null,"MEAN_MOTION":"15.08852455","MEAN_ANOMALY":"271.3372","SITE":"AFWTR","PERIOD":"95.437","INCLINATION":"53.2143","ELEMENT_SET_NO":"999","TIME_SYSTEM":"UTC","BSTAR":"0.00006902300000","OBJECT_TYPE":"PAYLOAD","CENTER_NAME":"EARTH","PERIAPSIS":"538.755","APOAPSIS":"540.660","SEMIMAJOR_AXIS":"6917.842","EPOCH":"2023-01-18T21:23:15.840384","LAUNCH_DATE":"2022-02-25","REV_AT_EPOCH":"5094","CLASSIFICATION_TYPE":"U","GP_ID":"223456631","RCS_SIZE":"LARGE","COUNTRY_CODE":"US","NORAD_CAT_ID":"51788","OBJECT_NAME":"STARLINK-3641","MEAN_ELEMENT_THEORY":"SGP4","TLE_LINE2":"2 51788  53.2143  92.8202 0001377  88.7778 271.3372 15.08852455 50941","ECCENTRICITY":"0.00013770"}];
